NORAD_CAT_ID,OBJECT_NAME,OBJECT_TYPE,EPOCH,MEAN_MOTION,ECCENTRICITY,INCLINATION,RA_OF_ASC_NODE,ARG_OF_PERICENTER,MEAN_ANOMALY,BSTAR,MEAN_MOTION_DOT,MEAN_MOTION_DDOT,TLE_LINE0,TLE_LINE1,TLE_LINE2,SEMIMAJOR_AXIS,PERIOD,APOGEE,PERIGEE,DECAYED
55676.0,STARLINK-5300,PAYLOAD,2023-09-11 12:39:27,15.69930087,0.000328,69.998,291.4203,266.4872,93.5949,1.3605e-06,-4.9e-07,0.0,0 STARLINK-5300,1 55676U 23021BA  23254.52740700 -.00000049  00000-0  13605-5 0  9992,2 55676  69.9980 291.4203 0003280 266.4872  93.5949 15.69930087 33149,6737.234,91.724,361.309,356.889,0.0
55676.0,STARLINK-5300,PAYLOAD,2023-09-12 02:25:13,15.69932548,0.0003244,69.9976,289.8072,265.6117,94.4708,1.3932e-05,1.463e-05,0.0,0 STARLINK-5300,1 55676U 23021BA  23255.10085324  .00001463  00000-0  13932-4 0  9993,2 55676  69.9976 289.8072 0003244 265.6117  94.4708 15.69932548 32935,6737.227,91.724,361.278,356.906,0.0
55676.0,STARLINK-5300,PAYLOAD,2023-09-12 10:04:01,15.69909604,0.0002995,69.9987,288.9117,268.2352,91.8501,-9.3729e-06,-1.339e-05,0.0,0 STARLINK-5300,1 55676U 23021BA  23255.41945668 -.00001339  00000-0 -93729-5 0  9990,2 55676  69.9987 288.9117 0002995 268.2352  91.8501 15.69909604 32983,6737.293,91.725,361.175,357.14,0.0
55676.0,STARLINK-5300,PAYLOAD,2023-09-12 11:35:45,15.69912024,0.0003104,69.9983,288.7333,265.8364,94.2477,-3.1038e-06,-5.86e-06,0.0,0 STARLINK-5300,1 55676U 23021BA  23255.48317045 -.00000586  00000-0 -31038-5 0  9997,2 55676  69.9983 288.7333 0003104 265.8364  94.2477 15.69912024 33290,6737.286,91.725,361.242,357.059,0.0
55676.0,STARLINK-5300,PAYLOAD,2023-09-13 02:53:15,15.69934633,0.0003302,69.9972,286.9413,274.1979,85.884,2.2883e-05,2.541e-05,0.0,0 STARLINK-5300,1 55676U 23021BA  23256.12031890  .00002541  00000-0  22883-4 0  9998,2 55676  69.9972 286.9413 0003302 274.1979  85.8840 15.69934633 33090,6737.221,91.724,361.311,356.861,0.0
55676.0,STARLINK-5300,PAYLOAD,2023-09-13 12:03:47,15.69902281,0.0002948,69.9991,285.8663,273.8896,86.1963,-3.592e-05,-4.525e-05,0.0,0 STARLINK-5300,1 55676U 23021BA  23256.50263463 -.00004525  00000-0 -35920-4 0  9995,2 55676  69.9991 285.8663 0002948 273.8896  86.1963 15.69902281 33459,6737.314,91.725,361.165,357.192,0.0
55676.0,STARLINK-5300,PAYLOAD,2023-09-13 13:35:32,15.69905639,0.0002876,69.999,285.6868,276.6321,83.4548,-2.7545e-05,-3.52e-05,0.0,0 STARLINK-5300,1 55676U 23021BA  23256.56635099 -.00003520  00000-0 -27545-4 0  9997,2 55676  69.9990 285.6868 0002876 276.6321  83.4548 15.69905639 33164,6737.304,91.725,361.107,357.231,0.0
55676.0,STARLINK-5300,PAYLOAD,2023-09-13 19:42:33,15.6990302,0.0003083,69.9994,284.9702,269.5386,90.5457,-3.8732e-05,-4.863e-05,0.0,0 STARLINK-5300,1 55676U 23021BA  23256.82122007 -.00004863  00000-0 -38732-4 0  9997,2 55676  69.9994 284.9702 0003083 269.5386  90.5457 15.69903020 33508,6737.311,91.725,361.254,357.099,0.0
55676.0,STARLINK-5300,PAYLOAD,2023-09-14 03:21:18,15.6991851,0.0002903,70.001,284.0745,270.8171,89.2692,-7.1396e-06,-1.07e-05,0.0,0 STARLINK-5300,1 55676U 23021BA  23257.13979888 -.00001070  00000-0 -71396-5 0  9990,2 55676  70.0010 284.0745 0002903 270.8171  89.2692 15.69918510 33253,6737.267,91.725,361.088,357.176,0.0
55676.0,STARLINK-5300,PAYLOAD,2023-09-14 09:28:18,15.69927607,0.000251,70.0018,283.3593,264.4566,95.6343,2.1481e-05,2.371e-05,0.0,0 STARLINK-5300,1 55676U 23021BA  23257.39466190  .00002371  00000-0  21481-4 0  9997,2 55676  70.0018 283.3593 0002510 264.4566  95.6343 15.69927607 33290,6737.241,91.724,360.797,357.415,0.0
55676.0,STARLINK-5300,PAYLOAD,2023-09-14 11:00:03,15.6992795,0.0002573,70.0015,283.18,265.125,94.9651,2.2784e-05,2.528e-05,0.0,0 STARLINK-5300,1 55676U 23021BA  23257.45837844  .00002528  00000-0  22784-4 0  9993,2 55676  70.0015 283.1800 0002573 265.1250  94.9651 15.69927950 33603,6737.24,91.724,360.839,357.372,0.0
55676.0,STARLINK-5300,PAYLOAD,2023-09-15 09:56:20,15.69926666,0.0002536,70.0015,280.4928,265.3263,94.7643,2.9286e-05,3.31e-05,0.0,0 STARLINK-5300,1 55676U 23021BA  23258.41413012  .00003310  00000-0  29286-4 0  9991,2 55676  70.0015 280.4928 0002536 265.3263  94.7643 15.69926666 33454,6737.244,91.724,360.817,357.4,0.0
55676.0,STARLINK-5300,PAYLOAD,2023-09-15 11:28:02,15.70033043,0.0002309,70.002,280.3135,228.4674,131.6324,0.00029519,0.00035587,0.0,0 STARLINK-5300,1 55676U 23021BA  23258.47781068  .00035587  00000-0  29519-3 0  9995,2 55676  70.0020 280.3135 0002309 228.4674 131.6324 15.70033043 33764,6736.939,91.718,360.36,357.249,0.0
55676.0,STARLINK-5300,PAYLOAD,2023-09-16 02:45:37,15.69919522,0.0003406,70.0008,278.5212,276.97,83.1108,1.8557e-05,2.019e-05,0.0,0 STARLINK-5300,1 55676U 23021BA  23259.11501983  .00002019  00000-0  18557-4 0  9998,2 55676  70.0008 278.5212 0003406 276.9700  83.1108 15.69919522 33564,6737.264,91.724,361.424,356.835,0.0
55676.0,STARLINK-5300,PAYLOAD,2023-09-16 08:52:37,15.69927191,0.0002548,70.0017,277.8067,252.4426,107.6491,1.4328e-05,1.511e-05,0.0,0 STARLINK-5300,1 55676U 23021BA  23259.36988243  .00001511  00000-0  14328-4 0  9991,2 55676  70.0017 277.8067 0002548 252.4426 107.6491 15.69927191 33607,6737.242,91.724,360.824,357.391,0.0
55676.0,STARLINK-5300,PAYLOAD,2023-09-16 11:56:07,15.69927749,0.0002889,70.0009,277.4476,261.572,98.5149,1.396e-05,1.467e-05,0.0,0 STARLINK-5300,1 55676U 23021BA  23259.49731464  .00001467  00000-0  13960-4 0  9997,2 55676  70.0009 277.4476 0002889 261.5720  98.5149 15.69927749 33926,6737.241,91.724,361.052,357.159,0.0
55676.0,STARLINK-5300,PAYLOAD,2023-09-17 01:41:45,15.70149495,0.0003164,70.0018,275.8351,209.6308,150.4709,0.00036015,0.00043724,0.0,0 STARLINK-5300,1 55676U 23021BA  23260.07066253  .00043724  00000-0  36015-3 0  9997,2 55676  70.0018 275.8351 0003164 209.6308 150.4709 15.70149495 33704,6736.606,91.711,360.603,356.34,0.0
55676.0,STARLINK-5300,PAYLOAD,2023-09-17 09:20:39,15.6993944,0.0002999,70.0012,274.9396,264.8715,95.2139,3.7368e-05,4.285e-05,0.0,0 STARLINK-5300,1 55676U 23021BA  23260.38934223  .00004285  00000-0  37368-4 0  9994,2 55676  70.0012 274.9396 0002999 264.8715  95.2139 15.69939440 33761,6737.207,91.723,361.093,357.052,0.0
55676.0,STARLINK-5300,PAYLOAD,2023-09-17 10:52:25,15.69905481,0.000249,70.0015,274.7604,259.1879,100.9036,-4.977e-05,-6.187e-05,0.0,0 STARLINK-5300,1 55676U 23021BA  23260.45307499 -.00006187  00000-0 -49770-4 0  9996,2 55676  70.0015 274.7604 0002490 259.1879 100.9036 15.69905481 34071,6737.304,91.725,360.847,357.492,0.0
55676.0,STARLINK-5300,PAYLOAD,2023-09-18 02:09:56,15.69929816,0.0003534,70.0011,272.9692,269.5203,90.5588,4.3416e-05,5.012e-05,0.0,0 STARLINK-5300,1 55676U 23021BA  23261.09023199  .00005012  00000-0  43416-4 0  9994,2 55676  70.0011 272.9692 0003534 269.5203  90.5588 15.69929816 33871,6737.235,91.724,361.481,356.719,0.0
55676.0,STARLINK-5300,PAYLOAD,2023-09-18 12:52:11,15.69940558,0.0003215,70.0005,271.7137,273.5096,86.5732,4.8885e-05,5.673e-05,0.0,0 STARLINK-5300,1 55676U 23021BA  23261.53624428  .00005673  00000-0  48885-4 0  9993,2 55676  70.0005 271.7137 0003215 273.5096  86.5732 15.69940558 34240,6737.204,91.723,361.235,356.903,0.0
55676.0,STARLINK-5300,PAYLOAD,2023-09-19 02:37:57,15.6992908,0.0003021,70.0013,270.1009,266.8569,93.2281,2.2345e-05,2.475e-05,0.0,0 STARLINK-5300,1 55676U 23021BA  23262.10969751  .00002475  00000-0  22345-4 0  9998,2 55676  70.0013 270.1009 0003021 266.8569  93.2281 15.69929080 34033,6737.237,91.724,361.137,357.067,0.0
55676.0,STARLINK-5300,PAYLOAD,2023-09-20 03:06:00,15.69916989,0.0003396,70.0013,267.2375,264.6532,95.4277,-6.8561e-06,-1.037e-05,0.0,0 STARLINK-5300,1 55676U 23021BA  23263.12917270 -.00001037  00000-0 -68561-5 0  9996,2 55676  70.0013 267.2375 0003396 264.6532  95.4277 15.69916989 34197,6737.271,91.725,361.424,356.849,0.0
55676.0,STARLINK-5300,PAYLOAD,2023-09-20 09:13:00,15.69924501,0.0002872,70.0016,266.5214,257.5172,102.5702,1.4204e-05,1.496e-05,0.0,0 STARLINK-5300,1 55676U 23021BA  23263.38403764  .00001496  00000-0  14204-4 0  9993,2 55676  70.0016 266.5214 0002872 257.5172 102.5702 15.69924501 34230,6737.25,91.724,361.05,357.18,0.0
55676.0,STARLINK-5300,PAYLOAD,2023-09-21 02:02:16,15.69939692,0.0004019,70.0012,264.5468,227.81,132.2755,4.7884e-05,5.553e-05,0.0,0 STARLINK-5300,1 55676U 23021BA  23264.08491168  .00005553  00000-0  47884-4 0  9994,2 55676  70.0012 264.5468 0004019 227.8100 132.2755 15.69939692 34348,6737.207,91.723,361.779,356.364,0.0
55676.0,STARLINK-5300,PAYLOAD,2023-09-21 09:41:02,15.69921301,0.0003239,70.0012,263.6517,266.0536,94.029,9.7859e-06,9.64e-06,0.0,0 STARLINK-5300,1 55676U 23021BA  23264.40350546  .00000964  00000-0  97859-5 0  9993,2 55676  70.0012 263.6517 0003239 266.0536  94.0290 15.69921301 34396,6737.259,91.724,361.306,356.942,0.0
55676.0,STARLINK-5300,PAYLOAD,2023-09-21 17:19:39,15.70088075,0.0006127,70.0013,262.7558,267.5688,92.4806,0.00033568,0.0004065,0.0,0 STARLINK-5300,1 55676U 23021BA  23264.72198457  .00040650  00000-0  33568-3 0  9990,2 55676  70.0013 262.7558 0006127 267.5688  92.4806 15.70088075 34440,6736.782,91.715,362.775,354.519,0.0
55676.0,STARLINK-5300,PAYLOAD,2023-09-22 02:30:12,15.69973629,0.0003608,70.0014,261.6816,260.5246,99.5542,-8.5353e-06,-1.241e-05,0.0,0 STARLINK-5300,1 55676U 23021BA  23265.10431541 -.00001241  00000-0 -85353-5 0  9993,2 55676  70.0014 261.6816 0003608 260.5246  99.5542 15.69973629 34508,6737.109,91.721,361.405,356.544,0.0
55676.0,STARLINK-5300,PAYLOAD,2023-09-22 05:34:05,15.69310807,0.0002407,70.0015,261.3249,256.3183,103.7744,-0.0016916,-0.00193969,0.0,0 STARLINK-5300,1 55676U 23021BA  23265.23200948 -.00193969  00000-0 -16916-2 0  9997,2 55676  70.0015 261.3249 0002407 256.3183 103.7744 15.69310807 34522,6739.006,91.76,362.493,359.249,0.0
55676.0,STARLINK-5300,PAYLOAD,2023-09-23 16:44:07,15.69925091,0.0003423,69.9996,257.2029,269.2673,90.8131,4.4093e-06,3.17e-06,0.0,0 STARLINK-5300,1 55676U 23021BA  23266.69730603  .00000317  00000-0  44093-5 0  9996,2 55676  69.9996 257.2029 0003423 269.2673  90.8131 15.69925091 34740,6737.248,91.724,361.419,356.807,0.0
